[{"OBJECT_NAME":"STARLINK-5482","OBJECT_ID":"2023-058AT","EPOCH":"2026-03-09T22:57:33.730560","MEAN_MOTION":15.01264433,"ECCENTRICITY":0.00015676,"INCLINATION":97.6058,"RA_OF_ASC_NODE":70.5185,"ARG_OF_PERICENTER":91.8182,"MEAN_ANOMALY":268.3222,"EPHEMERIS_TYPE":0,"CLASSIFICATION_TYPE":"U","NORAD_CAT_ID":56358,"ELEMENT_SET_NO":999,"REV_AT_EPOCH":15817,"BSTAR":-1.105464e-6,"MEAN_MOTION_DOT":-7.3e-7,"MEAN_MOTION_DDOT":0},{"OBJECT_NAME":"DEORBITSAIL","OBJECT_ID":"2015-032E","EPOCH":"2026-03-09T13:39:47.460384","MEAN_MOTION":15.02284863,"ECCENTRICITY":0.0012066,"INCLINATION":97.5981,"RA_OF_ASC_NODE":287.3228,"ARG_OF_PERICENTER":211.0438,"MEAN_ANOMALY":149.0075,"EPHEMERIS_TYPE":0,"CLASSIFICATION_TYPE":"U","NORAD_CAT_ID":40719,"ELEMENT_SET_NO":999,"REV_AT_EPOCH":57628,"BSTAR":0.0007398,"MEAN_MOTION_DOT":9.73e-5,"MEAN_MOTION_DDOT":0}]
